[{"OBJECT_NAME":"STARLINK-30383","OBJECT_ID":"2023-134C","EPOCH":"2026-03-09T22:00:01.999584","MEAN_MOTION":15.17137173,"ECCENTRICITY":0.00015199,"INCLINATION":42.9997,"RA_OF_ASC_NODE":195.8091,"ARG_OF_PERICENTER":263.9517,"MEAN_ANOMALY":359.4229,"EPHEMERIS_TYPE":0,"CLASSIFICATION_TYPE":"U","NORAD_CAT_ID":57773,"ELEMENT_SET_NO":999,"REV_AT_EPOCH":572,"BSTAR":0.0041556855,"MEAN_MOTION_DOT":0.00084725,"MEAN_MOTION_DDOT":0},{"OBJECT_NAME":"NUSAT-51 (YVONNE BRILL)","OBJECT_ID":"2025-276CC","EPOCH":"2026-03-09T17:32:05.675136","MEAN_MOTION":15.18982762,"ECCENTRICITY":0.00029597,"INCLINATION":97.4274,"RA_OF_ASC_NODE":144.0362,"ARG_OF_PERICENTER":11.654,"MEAN_ANOMALY":348.4762,"EPHEMERIS_TYPE":0,"CLASSIFICATION_TYPE":"U","NORAD_CAT_ID":66740,"ELEMENT_SET_NO":999,"REV_AT_EPOCH":1532,"BSTAR":0.00039155865,"MEAN_MOTION_DOT":8.126e-5,"MEAN_MOTION_DDOT":0}]
